{
  "norad_id": 68143,
  "name": "STARLINK-36995",
  "history": [
    {
      "epoch": "2026-03-28T22:00:01.999584Z",
      "apogee_km": 328.8957403625109,
      "perigee_km": 327.5406542313458,
      "latitude_deg": 44.876874327663074,
      "longitude_deg": -55.49903259107515,
      "height_km": 334.7295431568605,
      "semi_major_axis_km": 6706.355197296928,
      "eccentricity": 0.00010103,
      "inclination_deg": 97.2847,
      "raan_deg": 108.1108,
      "arg_perigee_deg": 100.7019,
      "mean_anomaly_deg": 304.548,
      "mean_motion_rev_day": 15.80785466
    },
    {
      "epoch": "2026-03-29T02:22:04.503072Z",
      "apogee_km": 328.5805548385997,
      "perigee_km": 327.543776447591,
      "latitude_deg": 1.8923234922291813e-05,
      "longitude_deg": -113.72669301403717,
      "height_km": 331.1297697989761,
      "semi_major_axis_km": 6706.199165643095,
      "eccentricity": 7.73e-05,
      "inclination_deg": 97.2846,
      "raan_deg": 108.3017,
      "arg_perigee_deg": 78.0778,
      "mean_anomaly_deg": 282.0577,
      "mean_motion_rev_day": 15.80840636
    },
    {
      "epoch": "2026-03-30T01:09:23.175360Z",
      "apogee_km": 329.14566399029536,
      "perigee_km": 326.9888145828563,
      "latitude_deg": 4.385901094157804e-05,
      "longitude_deg": -95.48628813403172,
      "height_km": 331.43256388100804,
      "semi_major_axis_km": 6706.204239286576,
      "eccentricity": 0.00016081,
      "inclination_deg": 97.2844,
      "raan_deg": 109.3058,
      "arg_perigee_deg": 100.2509,
      "mean_anomaly_deg": 259.8941,
      "mean_motion_rev_day": 15.80838842
    },
    {
      "epoch": "2026-03-30T13:18:37.401120Z",
      "apogee_km": 328.93166764674424,
      "perigee_km": 326.93285664247014,
      "latitude_deg": -3.942529063035843e-06,
      "longitude_deg": 82.24149947121467,
      "height_km": 331.55357722660574,
      "semi_major_axis_km": 6706.069262144607,
      "eccentricity": 0.00014903,
      "inclination_deg": 97.284,
      "raan_deg": 109.842,
      "arg_perigee_deg": 116.5905,
      "mean_anomaly_deg": 243.5516,
      "mean_motion_rev_day": 15.8088657
    },
    {
      "epoch": "2026-03-30T20:54:22.773024Z",
      "apogee_km": 328.8459692247625,
      "perigee_km": 326.6487191605438,
      "latitude_deg": 3.3464592071176744e-05,
      "longitude_deg": -31.67490855017668,
      "height_km": 331.37066532748815,
      "semi_major_axis_km": 6705.884344192653,
      "eccentricity": 0.00016383,
      "inclination_deg": 97.2836,
      "raan_deg": 110.1766,
      "arg_perigee_deg": 114.1529,
      "mean_anomaly_deg": 245.9911,
      "mean_motion_rev_day": 15.80951961
    },
    {
      "epoch": "2026-03-31T19:41:55.099104Z",
      "apogee_km": 331.8614666428093,
      "perigee_km": 330.0272038057583,
      "latitude_deg": -6.202099872320097e-05,
      "longitude_deg": -13.491434139594187,
      "height_km": 334.6790427336911,
      "semi_major_axis_km": 6709.081335224283,
      "eccentricity": 0.0001367,
      "inclination_deg": 97.2832,
      "raan_deg": 111.1808,
      "arg_perigee_deg": 127.7665,
      "mean_anomaly_deg": 232.3726,
      "mean_motion_rev_day": 15.7982207
    }
  ]
}